[{"OBJECT_NAME":"KOSEN-1","OBJECT_ID":"2021-102H","EPOCH":"2026-03-09T22:29:54.100608","MEAN_MOTION":15.25323573,"ECCENTRICITY":0.00138659,"INCLINATION":97.3334,"RA_OF_ASC_NODE":113.0569,"ARG_OF_PERICENTER":191.9191,"MEAN_ANOMALY":168.1721,"EPHEMERIS_TYPE":0,"CLASSIFICATION_TYPE":"U","NORAD_CAT_ID":49402,"ELEMENT_SET_NO":999,"REV_AT_EPOCH":23888,"BSTAR":0.00040411561,"MEAN_MOTION_DOT":0.00010142,"MEAN_MOTION_DDOT":0},{"OBJECT_NAME":"STARLINK-35992","OBJECT_ID":"2025-281E","EPOCH":"2026-03-09T03:26:53.297952","MEAN_MOTION":15.27579202,"ECCENTRICITY":0.00020462,"INCLINATION":43.0051,"RA_OF_ASC_NODE":346.4192,"ARG_OF_PERICENTER":256.9888,"MEAN_ANOMALY":103.0736,"EPHEMERIS_TYPE":0,"CLASSIFICATION_TYPE":"U","NORAD_CAT_ID":66852,"ELEMENT_SET_NO":999,"REV_AT_EPOCH":1610,"BSTAR":0.00092608498,"MEAN_MOTION_DOT":0.00025309,"MEAN_MOTION_DDOT":0}]
